0 DELTA 1 DEB
1 21368U 75052CN  13282.49593134  .00000004  00000-0  65147-4 0  1503
2 21368 099.8007 129.4700 0076948 079.6758 338.8763 13.58898510110417
0 DELTA 1 DEB
1 21368U 75052CN  13287.14588674  .00000009  00000-0  72486-4 0  1524
2 21368 099.7995 134.1151 0076921 068.0928 046.5279 13.58899046111047
0 DELTA 1 DEB
1 21368U 75052CN  13289.55766367  .00000005  00000-0  66301-4 0  1534
2 21368 099.7991 136.5243 0076874 062.0942 324.9717 13.58899460111374
0 DELTA 1 DEB
1 21368U 75052CN  13292.08631983  .00000001  00000-0  61613-4 0  1549
2 21368 099.7990 139.0501 0076790 055.7990 095.1995 13.58899828111718
0 DELTA 1 DEB
1 21368U 75052CN  13294.49724461 -.00000002  00000-0  57465-4 0  1553
2 21368 099.7989 141.4581 0076747 049.7836 009.4993 13.58899925112046
